ASIASAT 5               
1 35696U 09042A   26010.24002994 -.00000298  00000+0  00000+0 0  9991
2 35696   0.0166 284.7749 0001563  55.6086 316.3096  1.00291324 60129
JCSAT-12 (JCSAT-RA)     
1 35755U 09044A   26009.54937356 -.00000318  00000+0  00000+0 0  9992
2 35755   0.0243 293.8853 0001746  12.4532 132.5576  1.00272507 60019
OPTUS D3                
1 35756U 09044B   26009.59059167 -.00000136  00000+0  00000+0 0  9991
2 35756   0.8899 269.9712 0003847  28.6164 179.2574  1.00269865 59979
NIMIQ 5                 
1 35873U 09050A   26009.63672794 -.00000247  00000+0  00000+0 0  9993
2 35873   0.0358 260.9789 0002680  22.8192 341.8787  1.00270912 59751
AMAZONAS 2              
1 35942U 09054A   26009.55000708 -.00000274  00000+0  00000+0 0  9995
2 35942   1.4051  85.2538 0003341 203.8140 317.2196  1.00270783 59591
COMSATBW-1              
1 35943U 09054B   26009.10253120  .00000033  00000+0  00000+0 0  9997
2 35943   0.0135  65.9691 0003263 235.9576 266.6104  1.00270646 59715
NSS-12                  
1 36032U 09058A   26009.17961571  .00000079  00000+0  00000+0 0  9994
2 36032   0.0565 293.3652 0005141 347.3467 309.6704  1.00275626 59324
THOR 6                  
1 36033U 09058B   26009.12475453 -.00000002  00000+0  00000+0 0  9996
2 36033   0.0458 222.0237 0001955  86.2175 204.4845  1.00272283 59412
INTELSAT 14 (IS-14)     
1 36097U 09064A   26009.22977247 -.00000265  00000+0  00000+0 0  9993
2 36097   0.0194  62.5580 0002786 238.3375 205.5874  1.00272555 59014
EUTELSAT 36B            
1 36101U 09065A   26009.17961571  .00000120  00000+0  00000+0 0  9996
2 36101   0.0930  63.5625 0005551 226.1078 294.1871  1.00271806 59117
INTELSAT 15 (IS-15)     
1 36106U 09067A   26009.68136845 -.00000175  00000+0  00000+0 0  9998
2 36106   0.0176  26.8751 0002285 282.0118 130.7550  1.00272620 39632
WGS F3 (USA 211)        
1 36108U 09068A   26009.08030767 -.00000110  00000+0  00000+0 0  9990
2 36108   0.2297  86.7084 0000955 285.8140 203.2166  1.00267662 45009
DIRECTV 12              
1 36131U 09075A   26009.61034734 -.00000093  00000+0  00000+0 0  9991
2 36131   0.0136  88.0798 0000273 243.0853 254.9775  1.00267314 44969
BEIDOU-2 G1             
1 36287U 10001A   26009.59631708 -.00000273  00000+0  00000+0 0  9995
2 36287   3.9229  60.8009 0004596 258.9420 144.5178  1.00271460 58587
SDO                     
1 36395U 10005A   26009.25024319 -.00000081  00000+0  00000+0 0  9993
2 36395  34.3180  88.7640 0000626 157.2996 210.4549  1.00268944 58476
INTELSAT 16 (IS-16)     
1 36397U 10006A   26009.48914182 -.00000235  00000+0  00000+0 0  9998
2 36397   0.0115  29.7014 0002109 258.4569 280.7512  1.00272704 58068
EWS-G2 (GOES 15)        
1 36411U 10008A   26009.02317058  .00000045  00000+0  00000+0 0  9994
2 36411   0.8806  85.9908 0005448 187.5724 264.6841  1.00271907 58048
ECHOSTAR 14             
1 36499U 10010A   26009.61226949  .00000009  00000+0  00000+0 0  9996
2 36499   0.0165  38.9602 0002085 261.3403 270.3524  1.00276144 44968
SES-1                   
1 36516U 10016A   26009.61034740 -.00000105  00000+0  00000+0 0  9996
2 36516   0.0494 280.2300 0002501  13.5214 294.1023  1.00271615 57443
ASTRA 3B                
1 36581U 10021A   26009.11364106  .00000145  00000+0  00000+0 0  9994
2 36581   1.0575  85.7109 0002128 215.7847 231.5705  1.00273963 57275
COMSATBW-2              
1 36582U 10021B   26008.94766781  .00000095  00000+0  00000+0 0  9994
2 36582   0.0626 178.2373 0002581 117.8223 166.8244  1.00266273 57359
BEIDOU-2 G3             
1 36590U 10024A   26009.85331016 -.00000127  00000+0  00000+0 0  9993
2 36590   4.1410  62.1229 0005893 307.7477 126.3085  1.00270226 57183
BADR-5                  
1 36592U 10025A   26009.11364106  .00000153  00000+0  00000+0 0  9999
2 36592   0.0453 117.5369 0001645 110.6656 307.3589  1.00275920 51627
COMS 1                  
1 36744U 10032A   26008.88462475 -.00000339  00000+0  00000+0 0  9994
2 36744   4.4053  77.6691 0000978 229.0858 248.3081  1.00271467 49496
ARABSAT-5A              
1 36745U 10032B   26009.11364106  .00000161  00000+0  00000+0 0  9996
2 36745   0.0720  50.4752 0002327 249.4252 240.1368  1.00270795 57053
ECHOSTAR 15             
1 36792U 10034A   26009.61224765  .00000009  00000+0  00000+0 0  9992
2 36792   0.0305 282.0550 0002143 345.3903 303.2754  1.00272238 56736
BEIDOU-2 IGSO-1         
1 36828U 10036A   26005.15885067 -.00000102  00000+0  00000+0 0  9992
2 36828  54.2907 164.4355 0051952 216.3339 248.9789  1.00269100 56460
NILESAT 201             
1 36830U 10037A   26009.53971134 -.00000048  00000+0  00000+0 0  9992
2 36830   0.0295 152.9860 0004120 128.1184  15.2343  1.00271763 56771
RASCOM-QAF 1R           
1 36831U 10037B   26009.12475453  .00000026  00000+0  00000+0 0  9996
2 36831   0.0315  90.3157 0007137 195.4278 230.7179  1.00271588 56711
AEHF-1 (USA 214)        
1 36868U 10039A   26008.81662755  .00000151  00000+0  00000+0 0  9995
2 36868   7.8293  70.1170 0004644 220.5362 141.7466  1.00265706 52065
XM-5                    
1 37185U 10053A   26009.61372495 -.00000014  00000+0  00000+0 0  9991
2 37185   0.0661 265.6040 0002065 251.7701  57.5090  1.00274393 55890
BSAT-3B                 
1 37207U 10056B   26008.83222764 -.00000343  00000+0  00000+0 0  9990
2 37207   0.0658 238.2241 0003787  32.2286 247.3521  1.00273924 50502
BEIDOU-2 G4             
1 37210U 10057A   26009.58928087 -.00000105  00000+0  00000+0 0  9995
2 37210   3.2541  69.8398 0010647 198.8202 212.6302  1.00270620 55702
SKYTERRA 1              
1 37218U 10061A   26009.61034693 -.00000111  00000+0  00000+0 0  9990
2 37218   4.7878  50.9353 0003526 202.7886 333.8083  1.00271761 55600
HYLAS 1                 
1 37237U 10065A   26006.46745066 -.00000248  00000+0  00000+0 0  9999
2 37237   5.2334  75.0274 0002505 220.9387 259.5330  1.00385963  5264
INTELSAT 17 (IS-17)     
1 37238U 10065B   26009.10253120  .00000000  00000+0  00000+0 0  9994
2 37238   0.0338  89.2975 0002609 221.4819 260.7625  1.00271793 51658
BEIDOU-2 IGSO-2         
1 37256U 10068A   26009.52653666 -.00000203  00000+0  00000+0 0  9998
2 37256  47.8314 273.8035 0047929 215.3658 277.7901  1.00277437 55207
EUTELSAT KA-SAT 9A      
1 37258U 10069A   26009.00044600  .00000069  00000+0  00000+0 0  9995
2 37258   0.0500 341.6028 0001648 196.8777 299.2211  1.00268469 42413
HISPASAT 30W-5          
1 37264U 10070A   26009.11155767 -.00000208  00000+0  00000+0 0  9999
2 37264   0.0184 131.1052 0002570 162.1771 185.4927  1.00272116 51595
KOREASAT 6              
1 37265U 10070B   26009.58920321  .00000000  00000+0  00000+0 0  9996
2 37265   0.0192  30.5688 0001826 278.2029 172.3304  1.00270385 55189
BEIDOU-2 IGSO-3         
1 37384U 11013A   26009.60536647 -.00000173  00000+0  00000+0 0  9995
2 37384  62.1825  41.6473 0034482 189.6125 202.4404  1.00264135 54073
INTELSAT 28 (IS-28)     
1 37392U 11016A   26009.52603642 -.00000216  00000+0  00000+0 0  9996
2 37392   1.3971  84.7340 0004003 202.8371 339.1458  1.00271578 51698
YAHSAT 1A               
1 37393U 11016B   26009.17961571  .00000109  00000+0  00000+0 0  9996
2 37393   0.0191  67.1998 0003329 245.7397 272.9178  1.00271856 40811
SBIRS GEO-1 (USA 230)   
1 37481U 11019A   26008.82096090  .00000105  00000+0  00000+0 0  9999
2 37481   4.1856  53.0312 0002225 236.7728 165.9034  1.00271897 53808
TELSTAR 14R             
1 37602U 11021A   26009.64233866 -.00000270  00000+0  00000+0 0  9996
2 37602   0.0450 259.0063 0002347  66.1460 312.2561  1.00270692 54245
GSAT-8                  
1 37605U 11022A   26008.93100601  .00000091  00000+0  00000+0 0  9991
2 37605   1.7206  83.8832 0008724 192.5705 222.2419  1.00271851 51622
ST-2                    
1 37606U 11022B   26009.08030767 -.00000207  00000+0  00000+0 0  9994
2 37606   0.0138 353.6682 0002709 314.4201 277.4283  1.00287998 53681
ZHONGXING-10            
1 37677U 11026A   26010.69027867 -.00000177  00000+0  00000+0 0  9998
2 37677   0.6405  86.2740 0002834 201.4254 156.5638  1.00274535 53413
SES-3                   
1 37748U 11035A   26009.52832160 -.00000093  00000+0  00000+0 0  9994
2 37748   0.9177  84.9430 0003122 217.9193 253.3860  1.00272972 53008
KAZSAT-2                
1 37749U 11035B   26009.08030767 -.00000190  00000+0  00000+0 0  9997
2 37749   0.0362 180.9387 0001094 175.9448 227.1508  1.00272868 51804
BEIDOU-2 IGSO-4         
1 37763U 11038A   26009.39998689  .00000010  00000+0  00000+0 0  9996
2 37763  54.5913 167.0990 0150556 230.2936 310.4997  1.00276311 53051
ASTRA 1N                
1 37775U 11041A   26009.11364106  .00000127  00000+0  00000+0 0  9993
2 37775   0.0570 349.4854 0001850 346.2454 193.0115  1.00269825 42933
BSAT-3C (JCSAT-110R)    
1 37776U 11041B   26009.51585355 -.00000341  00000+0  00000+0 0  9998
2 37776   0.0279 306.7596 0000755  81.7618  16.1724  1.00269199 48879
PAKSAT-1R               
1 37779U 11042A   26009.10808613  .00000161  00000+0  00000+0 0  9991
2 37779   0.2777  86.1476 0001495 277.1708 182.3187  1.00278063 52881
SES-2                   
1 37809U 11049A   26009.62798422 -.00000186  00000+0  00000+0 0  9993
2 37809   0.0143  37.5615 0003010 251.8042 318.8579  1.00272065 52371
ARABSAT-5C              
1 37810U 11049B   26009.11364106  .00000131  00000+0  00000+0 0  9996
2 37810   0.0472   5.9205 0003018 266.1254 257.5252  1.00268995 52446
EUTELSAT 7 WEST A       
1 37816U 11051A   26009.17336287 -.00000052  00000+0  00000+0 0  9993
2 37816   0.0635 348.1197 0004596 248.4949 287.1942  1.00271680 52283
QUETZSAT 1              
1 37826U 11054A   26009.48914201 -.00000232  00000+0  00000+0 0  9999
2 37826   0.0328 295.6152 0003006  15.1185 257.3795  1.00271985 48284
INTELSAT 18 (IS-18)     
1 37834U 11056A   26009.22336569  .00000061  00000+0  00000+0 0  9996
2 37834   0.0332 264.3359 0001900  31.3740  73.4550  1.00272565 52217
